POLYTECH-UNIVERSE 3 (R*)
1 57191U 23091AB  26074.31570000  .00007171  00000+0  35283-3 0  9992
2 57191  97.5171 132.7219 0017382  96.4266 263.8947 15.18175924149707
UTMN 2 (RS27S)          
1 57203U 23091AP  26074.26363977  .00017392  00000+0  60618-3 0  9999
2 57203  97.5193 140.3085 0009390  59.7262 300.4906 15.29670059150176
KUZGTU 1 (RS47S)        
1 57217U 23091AV  26074.30401108  .00015059  00000+0  55820-3 0  9995
2 57217  97.5178 137.9376 0012706  72.5231 287.7396 15.27647053150034
SONATE-2                
1 59112U 24043Q   26074.14123855  .00044182  00000+0  73685-3 0  9999
2 59112  97.5394 219.3350 0007925 184.6236 175.4944 15.51822579113276
MESAT1                  
1 60209U 24125G   26073.85209974  .00056603  00000+0  86591-3 0  9994
2 60209  97.2453 289.7538 0011586 200.9026 159.1756 15.54126021 94870
OOV-CUBE (TUBSAT-30)    
1 60240U 24128F   26073.82131753  .00003896  00000+0  30018-3 0  9997
2 60240  61.9949 194.5051 0054090 113.3874 247.2919 15.02295176 91936
COLIBRI-S (RS67S)       
1 61746U 24199M   26074.25961513  .00024711  00000+0  54730-3 0  9996
2 61746  97.3156 307.4499 0007460 259.8353 100.2053 15.43742412122903
HORS 3 (RS81S)          
1 61753U 24199U   26074.26813637  .00036428  00000+0  67729-3 0  9998
2 61753  97.3124 308.6045 0005292 262.2543  97.8107 15.48795260122990
HORS 4 (RS82S)          
1 61754U 24199V   26074.26120088  .00044033  00000+0  73821-3 0  9991
2 61754  97.3096 309.3166 0004966 257.7006 102.3691 15.51697001123046
HORIZON (RS59S)         
1 61757U 24199Y   26074.28773884  .00164970  00000+0  12446-2 0  9992
2 61757  97.3063 313.3480 0003675 213.9335 146.1694 15.71975267123305
ARCTICSAT 1 (RS74S)     
1 61762U 24199AD  26074.25359494  .00118332  00000+0  11009-2 0  9997
2 61762  97.3081 312.7950 0003924 216.2074 143.8922 15.67011777123264
SIT-2086                
1 61764U 24199AF  26074.28188455  .00026644  00000+0  51095-3 0  9993
2 61764  97.3119 309.3423 0005959 248.4167 111.6449 15.47961792119884
HYPERVIEW 1G (RS66S)    
1 61772U 24199AP  26074.27876308  .00073361  00000+0  94295-3 0  9999
2 61772  97.3081 310.4993 0006354 256.3974 103.6575 15.58830903119972
ALTAIR (RS65S)          
1 61779U 24199AW  26074.30765214  .00012500  00000+0  36822-3 0  9993
2 61779  97.3181 304.3246 0011736 285.6293  74.3655 15.35111808122701
ASRTU-1 (AO-123)        
1 61781U 24199AY  26074.29067000  .00010673  00000+0  32404-3 0  9993
2 61781  97.3154 303.8249 0012471 287.7789  72.2092 15.34187945119523
TUSUR GO (RS78S)        
1 61782U 24199AZ  26074.29820176  .00191723  00000+0  13933-2 0  9996
2 61782  97.3012 312.3716 0003800 233.5735 126.5179 15.72786286120107
SAMSAT-IONOSPHERE (RS7*)
1 61784U 24199BB  26074.28801882  .00042768  00000+0  75976-3 0  9990
2 61784  97.3117 308.4265 0008393 267.9316  92.0974 15.50039852122982
RTU MIREA 1 (RS51S)     
1 61785U 24199BC  26074.27887576  .00048212  00000+0  79720-3 0  9995
2 61785  97.3115 308.8784 0008369 263.3812  96.6488 15.52038145119864
TEVEL2-4                
1 63213U 25052D   26074.24949294  .00022504  00000+0  74800-3 0  9995
2 63213  97.4018 330.6659 0004785  85.4822 274.6966 15.31185392 55728
TEVEL2-5                
1 63214U 25052E   26074.26089120  .00021984  00000+0  73371-3 0  9994
2 63214  97.4013 330.6488 0004759  85.0932 275.0853 15.31058896 55721
TEVEL2-6                
1 63215U 25052F   26074.27086559  .00021973  00000+0  73423-3 0  9995
2 63215  97.4018 330.6446 0004849  86.6586 273.5210 15.31018714 55728
TEVEL2-1                
1 63217U 25052H   26074.27065009  .00021393  00000+0  72443-3 0  9991
2 63217  97.3993 330.3708 0004963  94.8167 265.3640 15.30592341 55719
TEVEL2-3                
1 63218U 25052J   26074.26809667  .00021410  00000+0  72418-3 0  9999
2 63218  97.3998 330.3805 0004950  95.7764 264.4042 15.30628704 55711
TEVEL2-2                
1 63219U 25052K   26074.20592461  .00021410  00000+0  72501-3 0  9998
2 63219  97.3992 330.3072 0004908  94.9965 265.1836 15.30592748 55705
TEVEL2-9                
1 63237U 25052AD  26074.26598191  .00020150  00000+0  71928-3 0  9992
2 63237  97.4057 329.9270 0008360 109.3936 250.8209 15.28864884 55667
TEVEL2-7                
1 63238U 25052AE  26074.22562566  .00020145  00000+0  72400-3 0  9996
2 63238  97.4059 329.8375 0008545 108.9982 251.2184 15.28640447 55659
TEVEL2-8                
1 63239U 25052AF  26074.23272593  .00019073  00000+0  68613-3 0  9995
2 63239  97.4063 329.8248 0008498 109.9098 250.3058 15.28620496 55652
HADES-ICM               
1 63492U 25052BN  26074.22212562  .00168690  00000+0  21514-2 0  9993
2 63492  97.3927 334.8766 0009113 100.0841 260.1444 15.58682409 56008
INNOSAT 16 (RS92S7)     
1 64878U 25155C   26074.29678738  .00007924  00000+0  32672-3 0  9994
2 64878  97.4466  41.8574 0011652 147.0682 213.1283 15.24278527 66367
GEOSCAN 6 (RS92S6)      
1 64879U 25155D   26074.28129623  .00013455  00000+0  49227-3 0  9998
2 64879  97.4463  42.6581 0009419 137.6149 222.5820 15.28137464 66418
GEOSCAN 1 (RS92S1)      
1 64880U 25155E   26074.25005147  .00015050  00000+0  54300-3 0  9992
2 64880  97.4462  42.7041 0009341 137.7349 222.4612 15.28569089 66418
239ALFEROV (RS61S)      
1 64881U 25155F   26074.27013553  .00018311  00000+0  62883-3 0  9993
2 64881  97.4466  43.0113 0009109 136.2978 223.8985 15.30141613 66433
GEOSCAN 2 (RS92S2)      
1 64890U 25155Q   26074.26131230  .00015092  00000+0  53957-3 0  9990
2 64890  97.4460  42.8285 0009043 125.9961 234.2118 15.28870950 66421
GEOSCAN 5 (RS92S5)      
1 64891U 25155R   26074.27908543  .00017622  00000+0  59935-3 0  9994
2 64891  97.4458  43.1208 0007801 139.3170 220.8655 15.30474083 66448
GEOSCAN 4 (RS92S4)      
1 64892U 25155S   26074.27108738  .00018062  00000+0  61228-3 0  9990
2 64892  97.4462  43.1384 0007787 139.8254 220.3563 15.30578068 66441
GEOSCAN 3 (RS92S3)      
1 64893U 25155T   26074.24413460  .00021671  00000+0  70331-3 0  9994
2 64893  97.4455  43.3129 0007541 139.5953 220.5850 15.31948043 66451
INNOSAT 3 (RS92S0)      
1 64894U 25155U   26074.25861096  .00041432  00000+0  11355-2 0  9995
2 64894  97.4423  44.0182 0007358 133.8998 226.2855 15.37157884 66501
